NORAD_CAT_ID,OBJECT_NAME,OBJECT_TYPE,EPOCH,MEAN_MOTION,ECCENTRICITY,INCLINATION,RA_OF_ASC_NODE,ARG_OF_PERICENTER,MEAN_ANOMALY,BSTAR,MEAN_MOTION_DOT,MEAN_MOTION_DDOT,TLE_LINE0,TLE_LINE1,TLE_LINE2,SEMIMAJOR_AXIS,PERIOD,APOGEE,PERIGEE,DECAYED
52693.0,STARLINK-3946,PAYLOAD,2022-12-24 10:42:34,15.08849248,0.0002658,53.2169,2.0474,27.1075,333.0055,0.00038237,5.804e-05,0.0,0 STARLINK-3946,1 52693U 22053AP  22358.44622730  .00005804  00000-0  38237-3 0  9998,2 52693  53.2169   2.0474 0002658  27.1075 333.0055 15.08849248 34334,6917.852,95.437,541.556,537.878,0.0
52693.0,STARLINK-3946,PAYLOAD,2022-12-24 17:04:06,15.08848859,0.0002678,53.2168,0.8579,28.2288,331.8848,0.00032567,4.9e-05,0.0,0 STARLINK-3946,1 52693U 22053AP  22358.71118636  .00004900  00000-0  32567-3 0  9999,2 52693  53.2168   0.8579 0002678  28.2288 331.8848 15.08848859 33977,6917.853,95.437,541.571,537.866,0.0
52693.0,STARLINK-3946,PAYLOAD,2022-12-25 08:57:57,15.08841588,0.000268,53.2171,357.8853,29.4447,330.6696,3.3351999999999995e-05,2.42e-06,0.0,0 STARLINK-3946,1 52693U 22053AP  22359.37358735  .00000242  00000-0  33352-4 0  9997,2 52693  53.2171 357.8853 0002680  29.4447 330.6696 15.08841588 34076,6917.876,95.437,541.595,537.887,0.0
52693.0,STARLINK-3946,PAYLOAD,2022-12-26 00:51:49,15.08834131,0.0002785,53.2172,354.9115,33.726,326.3909,-0.000161,-2.85e-05,0.0,0 STARLINK-3946,1 52693U 22053AP  22360.03599268 -.00002850  00000-0 -16100-3 0  9990,2 52693  53.2172 354.9115 0002785  33.7260 326.3909 15.08834131 34179,6917.898,95.438,541.69,537.837,0.0
52693.0,STARLINK-3946,PAYLOAD,2022-12-26 08:48:45,15.08846192,0.0002604,53.2182,353.4238,32.0619,328.0531,5.6379e-05,6.09e-06,0.0,0 STARLINK-3946,1 52693U 22053AP  22360.36719006  .00000609  00000-0  56379-4 0  9991,2 52693  53.2182 353.4238 0002604  32.0619 328.0531 15.08846192 34226,6917.861,95.437,541.528,537.925,0.0
52693.0,STARLINK-3946,PAYLOAD,2022-12-26 16:45:41,15.08837382,0.0002806,53.2172,351.9363,32.2641,327.8523,6.3773e-05,7.27e-06,0.0,0 STARLINK-3946,1 52693U 22053AP  22360.69839338  .00000727  00000-0  63773-4 0  9995,2 52693  53.2172 351.9363 0002806  32.2641 327.8523 15.08837382 34272,6917.888000000001,95.438,541.695,537.812,0.0
52693.0,STARLINK-3946,PAYLOAD,2022-12-27 08:39:31,15.08853516,0.0002733,53.2172,348.9629,32.7026,327.4135,0.00040777,6.21e-05,0.0,0 STARLINK-3946,1 52693U 22053AP  22361.36078558  .00006210  00000-0  40777-3 0  9990,2 52693  53.2172 348.9629 0002733  32.7026 327.4135 15.08853516 34377,6917.839,95.437,541.595,537.813,0.0
52693.0,STARLINK-3946,PAYLOAD,2022-12-27 11:50:17,15.08861557,0.0002736,53.2171,348.3684,33.0533,327.0629,0.00056368,8.7e-05,0.0,0 STARLINK-3946,1 52693U 22053AP  22361.49326365  .00008700  00000-0  56368-3 0  9995,2 52693  53.2171 348.3684 0002736  33.0533 327.0629 15.08861557 34795,6917.814,95.436,541.572,537.7869999999998,0.0
52693.0,STARLINK-3946,PAYLOAD,2022-12-28 02:08:45,15.08863068,0.0002621,53.2166,345.6918,34.8021,325.3143,0.0004418999999999,6.756e-05,0.0,0 STARLINK-3946,1 52693U 22053AP  22362.08941824  .00006756  00000-0  44190-3 0  9993,2 52693  53.2166 345.6918 0002621  34.8021 325.3143 15.08863068 34884,6917.81,95.436,541.488,537.862,0.0
52693.0,STARLINK-3946,PAYLOAD,2022-12-29 05:10:20,15.08834061,0.0002663999999999,53.2169,340.6368,31.5311,328.5841,-6.593300000000001e-05,-1.338e-05,0.0,0 STARLINK-3946,1 52693U 22053AP  22363.21550947 -.00001338  00000-0 -65933-4 0  9993,2 52693  53.2169 340.6368 0002664  31.5311 328.5841 15.08834061 34650,6917.899,95.438,541.606,537.9209999999998,0.0
52693.0,STARLINK-3946,PAYLOAD,2022-12-29 09:56:29,15.08833743,0.0002733,53.2173,339.7457,29.1636,330.9509,-5.697600000000001e-05,-1.195e-05,0.0,0 STARLINK-3946,1 52693U 22053AP  22363.41423167 -.00001195  00000-0 -56976-4 0  9996,2 52693  53.2173 339.7457 0002733  29.1636 330.9509 15.08833743 35085,6917.9,95.438,541.655,537.874,0.0
52693.0,STARLINK-3946,PAYLOAD,2022-12-30 09:47:16,15.08847016,0.0002375,53.2171,335.2843,35.9146,324.2005,0.00027155,4.037e-05,0.0,0 STARLINK-3946,1 52693U 22053AP  22364.40783155  .00004037  00000-0  27155-3 0  9994,2 52693  53.2171 335.2843 0002375  35.9146 324.2005 15.08847016 34833,6917.859,95.437,541.367,538.081,0.0
52693.0,STARLINK-3946,PAYLOAD,2022-12-31 08:02:39,15.08868182,0.0002679,53.2169,331.1213,31.6527,328.4626,0.00032345,4.867e-05,0.0,0 STARLINK-3946,1 52693U 22053AP  22365.33518391  .00004867  00000-0  32345-3 0  9993,2 52693  53.2169 331.1213 0002679  31.6527 328.4626 15.08868182 35371,6917.794,95.436,541.513,537.806,0.0
52693.0,STARLINK-3946,PAYLOAD,2022-12-31 14:24:12,15.08865634,0.0002689,53.2168,329.9318,30.2079,329.9068,0.0001274999999999,1.743e-05,0.0,0 STARLINK-3946,1 52693U 22053AP  22365.60014014  .00001743  00000-0  12750-3 0  9994,2 52693  53.2168 329.9318 0002689  30.2079 329.9068 15.08865634 35419,6917.802,95.436,541.5269999999998,537.807,0.0
52693.0,STARLINK-3946,PAYLOAD,2023-01-01 04:42:40,15.08834797,0.0002637,53.2167,327.255,26.4052,333.7074,-0.00038426,-6.398e-05,0.0,0 STARLINK-3946,1 52693U 22053AP  23001.19630678 -.00006398  00000-0 -38426-3 0  9997,2 52693  53.2167 327.2550 0002637  26.4052 333.7074 15.08834797 35100,6917.896,95.438,541.586,537.937,0.0
52693.0,STARLINK-3946,PAYLOAD,2023-01-01 09:28:50,15.08836681,0.000254,53.217,326.3638,28.4138,331.6992,-0.0002431,-4.155e-05,0.0,0 STARLINK-3946,1 52693U 22053AP  23001.39502604 -.00004155  00000-0 -24310-3 0  9992,2 52693  53.2170 326.3638 0002540  28.4138 331.6992 15.08836681 35538,6917.891,95.438,541.513,537.998,0.0
52693.0,STARLINK-3946,PAYLOAD,2023-01-02 07:44:15,15.088331699999998,0.0002524,53.2167,322.2009,28.2997,331.8132,0.00090969,0.00014217,0.0,0 STARLINK-3946,1 52693U 22053AP  23002.32240166  .00014217  00000-0  90969-3 0  9999,2 52693  53.2167 322.2009 0002524  28.2997 331.8132 15.08833170 35273,6917.901,95.438,541.512,538.02,0.0
52693.0,STARLINK-3946,PAYLOAD,2023-01-02 14:05:48,15.08841446,0.0002583999999999,53.2169,321.0117,30.0544,330.0596,0.00099065,0.00015514,0.0,0 STARLINK-3946,1 52693U 22053AP  23002.58736151  .00015514  00000-0  99065-3 0  9998,2 52693  53.2169 321.0117 0002584  30.0544 330.0596 15.08841446 35716,6917.876,95.437,541.529,537.953,0.0
52693.0,STARLINK-3946,PAYLOAD,2023-01-02 22:02:43,15.08855706,0.0002544,53.2167,319.5246,29.5858,330.5278,0.0010539,0.00016532,0.0,0 STARLINK-3946,1 52693U 22053AP  23002.91855855  .00016532  00000-0  10539-2 0  9997,2 52693  53.2167 319.5246 0002544  29.5858 330.5278 15.08855706 35767,6917.831999999999,95.437,541.457,537.937,0.0
52693.0,STARLINK-3946,PAYLOAD,2023-01-03 04:24:16,15.08849006,0.0002583999999999,53.2167,318.3354,30.0802,330.0338,0.0006416,9.940000000000004e-05,0.0,0 STARLINK-3946,1 52693U 22053AP  23003.18352101  .00009940  00000-0  64160-3 0  9998,2 52693  53.2167 318.3354 0002584  30.0802 330.0338 15.08849006 35403,6917.853,95.437,541.505,537.93,0.0
52693.0,STARLINK-3946,PAYLOAD,2023-01-03 13:56:35,15.08843287,0.0002551,53.2167,316.5506,28.6553,331.4578,0.00025234,3.73e-05,0.0,0 STARLINK-3946,1 52693U 22053AP  23003.58096076  .00003730  00000-0  25234-3 0  9998,2 52693  53.2167 316.5506 0002551  28.6553 331.4578 15.08843287 35464,6917.87,95.437,541.5,537.971,0.0
52693.0,STARLINK-3946,PAYLOAD,2023-01-03 23:28:54,15.0882956,0.000272,53.2167,314.7674,29.806,330.3086,-3.4294e-05,-8.34e-06,0.0,0 STARLINK-3946,1 52693U 22053AP  23003.97840805 -.00000834  00000-0 -34294-4 0  9999,2 52693  53.2167 314.7674 0002720  29.8060 330.3086 15.08829560 35521,6917.9119999999975,95.438,541.659,537.896,0.0
52693.0,STARLINK-3946,PAYLOAD,2023-01-04 13:47:21,15.08852048,0.0002542,53.2175,312.091,29.3197,330.7937,0.00027827,4.145e-05,0.0,0 STARLINK-3946,1 52693U 22053AP  23004.57455971  .00004145  00000-0  27827-3 0  9992,2 52693  53.2175 312.0910 0002542  29.3197 330.7937 15.08852048 36013,6917.844,95.437,541.467,537.95,0.0
52693.0,STARLINK-3946,PAYLOAD,2023-01-04 20:08:54,15.08856976,0.0002512,53.2171,310.901,29.389,330.7243,0.0004184,6.38e-05,0.0,0 STARLINK-3946,1 52693U 22053AP  23004.83951745  .00006380  00000-0  41840-3 0  9995,2 52693  53.2171 310.9010 0002512  29.3890 330.7243 15.08856976 35657,6917.829000000002,95.436,541.431,537.956,0.0
52693.0,STARLINK-3946,PAYLOAD,2023-01-05 13:38:07,15.08875663,0.0002438,53.2163,307.6289,30.0033,330.1098,0.00079846,0.00012455,0.0,0 STARLINK-3946,1 52693U 22053AP  23005.56814687  .00012455  00000-0  79846-3 0  9996,2 52693  53.2163 307.6289 0002438  30.0033 330.1098 15.08875663 36167,6917.771,95.435,541.323,537.95,0.0
52693.0,STARLINK-3946,PAYLOAD,2023-01-05 15:13:30,15.08877565,0.0002424999999999,53.2163,307.3319,28.2622,331.8501,0.00079143,0.00012343,0.0,0 STARLINK-3946,1 52693U 22053AP  23005.63438475  .00012343  00000-0  79143-3 0  9997,2 52693  53.2163 307.3319 0002425  28.2622 331.8501 15.08877565 36178,6917.766,95.435,541.308,537.953,0.0
52693.0,STARLINK-3946,PAYLOAD,2023-01-06 15:04:18,15.08819205,0.0002351,53.2168,302.8708,26.3131,333.7981,-0.00040557,-6.734e-05,0.0,0 STARLINK-3946,1 52693U 22053AP  23006.62799694 -.00006734  00000-0 -40557-3 0  9996,2 52693  53.2168 302.8708 0002351  26.3131 333.7981 15.08819205 35929,6917.944,95.439,541.435,538.183,0.0
52693.0,STARLINK-3946,PAYLOAD,2023-01-06 21:25:52,15.08817375,0.0002709,53.2167,301.6823,24.6808,335.4314,0.00012811,1.75e-05,0.0,0 STARLINK-3946,1 52693U 22053AP  23006.89296378  .00001750  00000-0  12811-3 0  9999,2 52693  53.2167 301.6823 0002709  24.6808 335.4314 15.08817375 36366,6917.95,95.439,541.689,537.94,0.0
52693.0,STARLINK-3946,PAYLOAD,2023-01-06 23:01:15,15.08815694,0.0002757,53.2167,301.3854,29.2711,330.8436,0.0001727,2.459e-05,0.0,0 STARLINK-3946,1 52693U 22053AP  23006.95920581  .00002459  00000-0  17270-3 0  9997,2 52693  53.2167 301.3854 0002757  29.2711 330.8436 15.08815694 36371,6917.955,95.439,541.727,537.9119999999998,0.0
